{"type": "FeatureCollection", "features": [ {"type": "Feature", "properties": {"norad_id": 34141, "name": "COSMOS 2251 DEB", "group": "cosmos-2251-debris", "lat": -41.27254641008305, "lon": 13.89913423363826, "alt_km": 765.4454408625706, "timestamp": "2025-12-12T22:42:12.939473+00:00", "meta": {"OBJECT_NAME": "COSMOS 2251 DEB", "OBJECT_ID": "1993-036LN", "EPOCH": "2025-12-12T03:10:02.075808", "MEAN_MOTION": 14.49232545, "ECCENTRICITY": 0.00472576, "INCLINATION": 74.0112, "RA_OF_ASC_NODE": 30.0026, "ARG_OF_PERICENTER": 116.5052, "MEAN_ANOMALY": 275.2538, "EPHEMERIS_TYPE": 0, "CLASSIFICATION_TYPE": "U", "NORAD_CAT_ID": 34141, "ELEMENT_SET_NO": 999, "REV_AT_EPOCH": 87685, "BSTAR": 0.0022924592, "MEAN_MOTION_DOT": 8.845e-05, "MEAN_MOTION_DDOT": 0}, "tle": {"line1": "1 34141U 93036LN  25346.13196847  .00008845  00000+0  22925-2 0  9999", "line2": "2 34141  74.0112  30.0026 0047257 116.5052 275.2538 14.49232545876851"}}, "geometry": {"type": "Point", "coordinates": [13.89913423363826, -41.27254641008305]}}, {"type": "Feature", "properties": {"norad_id": 34270, "name": "COSMOS 2251 DEB", "group": "cosmos-2251-debris", "lat": -68.11226416329659, "lon": -99.30467463793998, "alt_km": 716.9465896268721, "timestamp": "2025-12-12T22:42:12.939483+00:00", "meta": {"OBJECT_NAME": "COSMOS 2251 DEB", "OBJECT_ID": "1993-036LQ", "EPOCH": "2025-12-12T06:39:35.261280", "MEAN_MOTION": 14.65162944, "ECCENTRICITY": 0.00477871, "INCLINATION": 74.0115, "RA_OF_ASC_NODE": 307.5177, "ARG_OF_PERICENTER": 100.4366, "MEAN_ANOMALY": 260.2193, "EPHEMERIS_TYPE": 0, "CLASSIFICATION_TYPE": "U", "NORAD_CAT_ID": 34270, "ELEMENT_SET_NO": 999, "REV_AT_EPOCH": 89089, "BSTAR": 0.0012240976, "MEAN_MOTION_DOT": 6.67e-05, "MEAN_MOTION_DDOT": 0}, "tle": {"line1": "1 34270U 93036LQ  25346.27749145  .00006670  00000+0  12241-2 0  9996", "line2": "2 34270  74.0115 307.5177 0047787 100.4366 260.2193 14.65162944890898"}}, "geometry": {"type": "Point", "coordinates": [-99.30467463793998, -68.11226416329659]}}, {"type": "Feature", "properties": {"norad_id": 34271, "name": "COSMOS 2251 DEB", "group": "cosmos-2251-debris", "lat": -52.23976221427507, "lon": 40.640183219600274, "alt_km": 652.586954870093, "timestamp": "2025-12-12T22:42:12.939493+00:00", "meta": {"OBJECT_NAME": "COSMOS 2251 DEB", "OBJECT_ID": "1993-036LR", "EPOCH": "2025-12-12T00:58:38.627904", "MEAN_MOTION": 14.70736042, "ECCENTRICITY": 0.0018858, "INCLINATION": 74.0204, "RA_OF_ASC_NODE": 200.6858, "ARG_OF_PERICENTER": 254.8683, "MEAN_ANOMALY": 229.3614, "EPHEMERIS_TYPE": 0, "CLASSIFICATION_TYPE": "U", "NORAD_CAT_ID": 34271, "ELEMENT_SET_NO": 999, "REV_AT_EPOCH": 88224, "BSTAR": 0.0028463, "MEAN_MOTION_DOT": 0.0001742, "MEAN_MOTION_DDOT": 0}, "tle": {"line1": "1 34271U 93036LR  25346.04072486  .00017420  00000+0  28463-2 0  9997", "line2": "2 34271  74.0204 200.6858 0018858 254.8683 229.3614 14.70736042882246"}}, "geometry": {"type": "Point", "coordinates": [40.640183219600274, -52.23976221427507]}}, {"type": "Feature", "properties": {"norad_id": 34273, "name": "COSMOS 2251 DEB", "group": "cosmos-2251-debris", "lat": -62.99857361819328, "lon": -58.7868201402151, "alt_km": 687.8717722844485, "timestamp": "2025-12-12T22:42:12.939503+00:00", "meta": {"OBJECT_NAME": "COSMOS 2251 DEB", "OBJECT_ID": "1993-036LT", "EPOCH": "2025-12-12T02:08:39.901344", "MEAN_MOTION": 14.61217928, "ECCENTRICITY": 0.00141162, "INCLINATION": 74.0355, "RA_OF_ASC_NODE": 88.6706, "ARG_OF_PERICENTER": 214.6471, "MEAN_ANOMALY": 208.7688, "EPHEMERIS_TYPE": 0, "CLASSIFICATION_TYPE": "U", "NORAD_CAT_ID": 34273, "ELEMENT_SET_NO": 999, "REV_AT_EPOCH": 88612, "BSTAR": 0.0016199096, "MEAN_MOTION_DOT": 7.975e-05, "MEAN_MOTION_DDOT": 0}, "tle": {"line1": "1 34273U 93036LT  25346.08935071  .00007975  00000+0  16199-2 0  9998", "line2": "2 34273  74.0355  88.6706 0014116 214.6471 208.7688 14.61217928886123"}}, "geometry": {"type": "Point", "coordinates": [-58.7868201402151, -62.99857361819328]}}, {"type": "Feature", "properties": {"norad_id": 34274, "name": "COSMOS 2251 DEB", "group": "cosmos-2251-debris", "lat": -26.10567101881428, "lon": 60.090173127632745, "alt_km": 689.5739301206377, "timestamp": "2025-12-12T22:42:12.939513+00:00", "meta": {"OBJECT_NAME": "COSMOS 2251 DEB", "OBJECT_ID": "1993-036LU", "EPOCH": "2025-12-12T06:41:36.032928", "MEAN_MOTION": 14.64779208, "ECCENTRICITY": 0.00220445, "INCLINATION": 74.0044, "RA_OF_ASC_NODE": 69.4552, "ARG_OF_PERICENTER": 219.4955, "MEAN_ANOMALY": 196.8506, "EPHEMERIS_TYPE": 0, "CLASSIFICATION_TYPE": "U", "NORAD_CAT_ID": 34274, "ELEMENT_SET_NO": 999, "REV_AT_EPOCH": 88669, "BSTAR": 0.0018879572, "MEAN_MOTION_DOT": 0.00010087, "MEAN_MOTION_DDOT": 0}, "tle": {"line1": "1 34274U 93036LU  25346.27888927  .00010087  00000+0  18880-2 0  9994", "line2": "2 34274  74.0044  69.4552 0022044 219.4955 196.8506 14.64779208886699"}}, "geometry": {"type": "Point", "coordinates": [60.090173127632745, -26.10567101881428]}}, {"type": "Feature", "properties": {"norad_id": 34276, "name": "COSMOS 2251 DEB", "group": "cosmos-2251-debris", "lat": -73.20356985007815, "lon": -23.425255183683817, "alt_km": 695.6806042289345, "timestamp": "2025-12-12T22:42:12.939523+00:00", "meta": {"OBJECT_NAME": "COSMOS 2251 DEB", "OBJECT_ID": "1993-036LW", "EPOCH": "2025-12-12T06:45:59.391360", "MEAN_MOTION": 14.57225068, "ECCENTRICITY": 0.00225955, "INCLINATION": 74.0233, "RA_OF_ASC_NODE": 86.1909, "ARG_OF_PERICENTER": 232.9767, "MEAN_ANOMALY": 149.4764, "EPHEMERIS_TYPE": 0, "CLASSIFICATION_TYPE": "U", "NORAD_CAT_ID": 34276, "ELEMENT_SET_NO": 999, "REV_AT_EPOCH": 88586, "BSTAR": 0.001332092, "MEAN_MOTION_DOT": 6.015e-05, "MEAN_MOTION_DDOT": 0}, "tle": {"line1": "1 34276U 93036LW  25346.28193740  .00006015  00000+0  13321-2 0  9990", "line2": "2 34276  74.0233  86.1909 0022595 232.9767 149.4764 14.57225068885865"}}, "geometry": {"type": "Point", "coordinates": [-23.425255183683817, -73.20356985007815]}}, {"type": "Feature", "properties": {"norad_id": 34297, "name": "COSMOS 2251 DEB", "group": "cosmos-2251-debris", "lat": -71.90190161561627, "lon": 164.9165741650042, "alt_km": 776.8077315789833, "timestamp": "2025-12-12T22:42:12.939532+00:00", "meta": {"OBJECT_NAME": "COSMOS 2251 DEB", "OBJECT_ID": "1993-036MT", "EPOCH": "2025-12-12T06:59:29.235840", "MEAN_MOTION": 14.36628731, "ECCENTRICITY": 0.00172694, "INCLINATION": 74.0487, "RA_OF_ASC_NODE": 285.0556, "ARG_OF_PERICENTER": 353.747, "MEAN_ANOMALY": 123.273, "EPHEMERIS_TYPE": 0, "CLASSIFICATION_TYPE": "U", "NORAD_CAT_ID": 34297, "ELEMENT_SET_NO": 999, "REV_AT_EPOCH": 88058, "BSTAR": 0.00023769211, "MEAN_MOTION_DOT": 6.74e-06, "MEAN_MOTION_DDOT": 0}, "tle": {"line1": "1 34297U 93036MT  25346.29131060  .00000674  00000+0  23769-3 0  9994", "line2": "2 34297  74.0487 285.0556 0017269 353.7470 123.2730 14.36628731880580"}}, "geometry": {"type": "Point", "coordinates": [164.9165741650042, -71.90190161561627]}}, {"type": "Feature", "properties": {"norad_id": 34299, "name": "COSMOS 2251 DEB", "group": "cosmos-2251-debris", "lat": -67.28414645227879, "lon": -162.57925883525294, "alt_km": 368.31674054254745, "timestamp": "2025-12-12T22:42:12.939543+00:00", "meta": {"OBJECT_NAME": "COSMOS 2251 DEB", "OBJECT_ID": "1993-036MV", "EPOCH": "2025-12-12T00:15:10.948032", "MEAN_MOTION": 15.71721272, "ECCENTRICITY": 0.0019867, "INCLINATION": 73.9778, "RA_OF_ASC_NODE": 336.1995, "ARG_OF_PERICENTER": 58.1064, "MEAN_ANOMALY": 302.2089, "EPHEMERIS_TYPE": 0, "CLASSIFICATION_TYPE": "U", "NORAD_CAT_ID": 34299, "ELEMENT_SET_NO": 999, "REV_AT_EPOCH": 88999, "BSTAR": 0.0068656, "MEAN_MOTION_DOT": 0.00987514, "MEAN_MOTION_DDOT": 0}, "tle": {"line1": "1 34299U 93036MV  25346.01054338  .00987514  00000+0  68656-2 0  9998", "line2": "2 34299  73.9778 336.1995 0019867  58.1064 302.2089 15.71721272889993"}}, "geometry": {"type": "Point", "coordinates": [-162.57925883525294, -67.28414645227879]}}, {"type": "Feature", "properties": {"norad_id": 34301, "name": "COSMOS 2251 DEB", "group": "cosmos-2251-debris", "lat": -59.07410634878295, "lon": 14.897567393126431, "alt_km": 614.2951732514011, "timestamp": "2025-12-12T22:42:12.939552+00:00", "meta": {"OBJECT_NAME": "COSMOS 2251 DEB", "OBJECT_ID": "1993-036MX", "EPOCH": "2025-12-11T23:31:07.335264", "MEAN_MOTION": 14.84486311, "ECCENTRICITY": 0.0011164, "INCLINATION": 74.0055, "RA_OF_ASC_NODE": 168.2112, "ARG_OF_PERICENTER": 228.3097, "MEAN_ANOMALY": 254.1754, "EPHEMERIS_TYPE": 0, "CLASSIFICATION_TYPE": "U", "NORAD_CAT_ID": 34301, "ELEMENT_SET_NO": 999, "REV_AT_EPOCH": 88389, "BSTAR": 0.0041118, "MEAN_MOTION_DOT": 0.00034825, "MEAN_MOTION_DDOT": 0}, "tle": {"line1": "1 34301U 93036MX  25345.97994601  .00034825  00000+0  41118-2 0  9994", "line2": "2 34301  74.0055 168.2112 0011164 228.3097 254.1754 14.84486311883893"}}, "geometry": {"type": "Point", "coordinates": [14.897567393126431, -59.07410634878295]}}, {"type": "Feature", "properties": {"norad_id": 34302, "name": "COSMOS 2251 DEB", "group": "cosmos-2251-debris", "lat": -58.42987185577281, "lon": 95.72032448021861, "alt_km": 724.578562106688, "timestamp": "2025-12-12T22:42:12.939563+00:00", "meta": {"OBJECT_NAME": "COSMOS 2251 DEB", "OBJECT_ID": "1993-036MY", "EPOCH": "2025-12-12T04:53:51.964224", "MEAN_MOTION": 14.39328492, "ECCENTRICITY": 0.00787888, "INCLINATION": 74.1778, "RA_OF_ASC_NODE": 124.5602, "ARG_OF_PERICENTER": 339.9165, "MEAN_ANOMALY": 75.6981, "EPHEMERIS_TYPE": 0, "CLASSIFICATION_TYPE": "U", "NORAD_CAT_ID": 34302, "ELEMENT_SET_NO": 999, "REV_AT_EPOCH": 87713, "BSTAR": 0.0010049599, "MEAN_MOTION_DOT": 3.213e-05, "MEAN_MOTION_DDOT": 0}, "tle": {"line1": "1 34302U 93036MY  25346.20407366  .00003213  00000+0  10050-2 0  9997", "line2": "2 34302  74.1778 124.5602 0078788 339.9165  75.6981 14.39328492877139"}}, "geometry": {"type": "Point", "coordinates": [95.72032448021861, -58.42987185577281]}}]}